UNKNOWN                 
1 82965U 70025    23027.89840133  .00001290  00000+0  18929-2 0  9996
2 82965 100.1934  62.0652 0001427 226.9631 133.1385 13.56628807381927
UNKNOWN                 
1 83903U          23029.51515987 -.00000330  00000+0  00000+0 0  9995
2 83903   8.7378 300.9344 0128686 219.1123 305.7373  0.99117018 33270
UNKNOWN                 
1 83934U          23028.98795564 -.00000050  00000+0  00000+0 0  9999
2 83934   8.1298 306.3589 0220788 241.9714 321.1613  1.02661172 34512
UNKNOWN                 
1 83970U          23028.01156891  .00005728  00000+0  40531-2 0  9999
2 83970  18.3290 315.2978 5182334 134.0014 282.6074  5.19529655140940
UNKNOWN                 
1 83975U          23029.31557219 -.00000306  00000+0  00000+0 0  9999
2 83975  19.6749  29.1284 7015215  97.3001 340.4174  2.15284471 59761
UNKNOWN                 
1 84006U          23029.22541967 -.00000191  00000+0  00000+0 0  9990
2 84006  23.9442  19.1370 6126871  68.3173 344.3732  2.16228340 61544
UNKNOWN                 
1 84071U          23028.55527049  .00002241  00000+0  19740-2 0  9993
2 84071  20.4180 162.4275 6930691  34.3217 355.1593  2.68348661 75948
UNKNOWN                 
1 84079U          23028.09524425  .00002984  00000+0  40911-2 0  9993
2 84079  62.7641 289.7005 3953077 187.1135 165.1126  7.09512813230123
UNKNOWN                 
1 84136U          23027.99929072  .00443346  00000+0  13307-1 0  9991
2 84136  51.3434 241.5245 0949411 321.7617  31.9472 13.66263123395480
UNKNOWN                 
1 84170U 12008    23029.42213258  .00005591  00000+0  38022-2 0  9990
2 84170  21.0068 105.0410 6927203  38.9411 354.5100  2.70062174 65654
UNKNOWN                 
1 84188U          23015.17809971  .00069532  00000+0  10874+0 0  9995
2 84188  64.9390 228.8416 4756384 104.6392 311.1264  5.76339785174727
UNKNOWN                 
1 84232U 79104    23028.03512239  .00007681  00000+0  58026-2 0  9994
2 84232  20.2349 114.2089 6820448 132.1756 310.1371  2.83377280 73223
UNKNOWN                 
1 84236U          23028.15074493  .00003482  00000+0  12544-1 0  9994
2 84236   9.1619  94.7892 6947802 234.8662  39.4912  2.59331397175279
UNKNOWN                 
1 84292U          23029.43145126  .00016826  00000+0  41215-2 0  9994
2 84292  23.8676 146.3269 4772334 280.8032  30.7687  5.96167287163926
UNKNOWN                 
1 84346U          23029.02882979  .00003450  00000+0  87426-3 0  9997
2 84346  21.0835  22.4083 6845578 193.4775 129.6937  2.84279543 56196
UNKNOWN                 
1 84353U          23019.84252505 -.00000092  00000+0  00000+0 0  9999
2 84353  18.5884 228.9538 6691342   4.5804 359.4736  2.03738876 46559
UNKNOWN                 
1 84406U          23029.10111707  .00000747  00000+0  42311-2 0  9996
2 84406 101.6761 152.2556 0040950 303.1366 232.8459 12.65522992916565
UNKNOWN                 
1 84407U          23028.78662283 -.00000279  00000+0 -44364-2 0  9992
2 84407  18.9622 278.9672 7218578 205.7435  85.1727  2.05673930 54271
UNKNOWN                 
1 84415U          23029.00762036  .00901993  00000+0  21839-1 0  9996
2 84415  23.7025 345.2364 3635291  38.1158 342.7729  8.19578322 36722
UNKNOWN                 
1 84434U          23029.15703830  .00002284  00000+0  87344-2 0  9999
2 84434  20.6533  11.4957 7139119  28.3223 356.5617  2.35749530 61178
UNKNOWN                 
1 84452U          23029.22503972  .00006484  00000+0  98898-3 0  9995
2 84452   2.8323 248.9104 6144234 358.0260   0.4266  3.84187628114280
UNKNOWN                 
1 84480U          23029.45650863  .00011519  00000+0  57865-2 0  9996
2 84480  45.9044 213.3722 4512799 163.0720 219.1509  6.31518799192062
UNKNOWN                 
1 84565U          23027.17442822  .00001684  00000+0  51726-2 0  9993
2 84565   2.1611  72.2104 7208810 308.1488   6.4544  2.28579723 39566
UNKNOWN                 
1 84575U          23028.94039798 -.00000113  00000+0 -44390-2 0  9991
2 84575  17.8597 146.9145 7143593 102.5429 339.1130  2.19838793 42380
UNKNOWN                 
1 84597U          23023.18499155  .00005772  00000+0  23594-1 0  9999
2 84597  18.8850  62.1954 7282825 251.4495  22.3699  2.18592214 45471
UNKNOWN                 
1 84840U          22365.07847456 -.00001327  00000+0  00000+0 0  9995
2 84840  15.9719 353.3085 8171221 281.1962 359.9886  0.46176619  1207
UNKNOWN                 
1 84911U          23029.52326622  .00000045  00000+0  16782-2 0  9991
2 84911   1.5298 212.0044 6575714 126.9003 133.4558  2.95890948 99505
UNKNOWN                 
1 84932U          23029.27458907  .00000221  00000+0  26033-2 0  9994
2 84932   2.3607  76.6987 6582871  27.4359  62.5105  2.98936625100354
UNKNOWN                 
1 84950U          23029.40367591 -.00000482  00000+0  00000+0 0  9990
2 84950   2.6597 354.4013 6997233 318.9940 337.0912  2.04324381 68567
UNKNOWN                 
1 84961U          23028.63824176 -.00000209  00000+0  00000+0 0  9990
2 84961   8.0311 294.1818 0130245 243.7556 114.9917  0.98629749 33106
UNKNOWN                 
1 85004U          23029.22916309  .00001183  00000+0  41046-3 0  9995
2 85004  98.2989  16.3813 0051862  68.7439 304.7718 14.36543723481286
UNKNOWN                 
1 85010U          23028.16027633  .00001153  00000+0  13218-2 0  9993
2 85010  99.3351 269.4969 0026099 118.2911  35.7820 13.71653692459859
UNKNOWN                 
1 85011U          23029.35410703  .00042022  00000+0  11898-1 0  9991
2 85011  70.9716 156.1275 0014533 313.9051  46.0886 14.45237823273689
UNKNOWN                 
1 85015U          23028.84883812  .00000481  00000+0  10621-3 0  9991
2 85015  74.0461 241.7301 0013647  56.3464 303.9001 14.60053734489415
UNKNOWN                 
1 85023U          23028.82218315  .00005513  00000+0  21548-2 0  9998
2 85023  99.8675 224.4693 0002546 195.5183 179.9284 14.30037758477234
UNKNOWN                 
1 85027U          23029.03071500  .00000106  00000+0  17832-3 0  9994
2 85027  66.0417 147.9264 0173979  23.1160 337.7610 13.73474029460557
UNKNOWN                 
1 85047U          23028.27217139  .00007765  00000+0  18907-1 0  9991
2 85047 102.3745 152.2271 0202430 148.4260 212.9175 13.14767114437336
UNKNOWN                 
1 85061U          23029.58259417  .00005674  00000+0  25390-1 0  9998
2 85061 102.4701 267.5153 0298805  43.3066  23.7026 12.66354858422578
UNKNOWN                 
1 85100U          23025.28198240  .00000670  00000+0  22471-3 0  9991
2 85100  74.0472   5.9286 0011701 141.8491 282.0960 14.39123901481865
UNKNOWN                 
1 85106U          23029.04853059  .00000634  00000+0  76504-3 0  9997
2 85106 100.1382  66.2054 0010555 157.6125 234.6897 13.70940580459276
UNKNOWN                 
1 85111U 73086    23029.34871534  .00000538  00000+0  37706-2 0  9991
2 85111 101.6794 359.7587 0009930 196.4449 163.6301 12.51116375334774
UNKNOWN                 
1 85151U 86019    23028.52277159  .00006616  00000+0  20315-2 0  9998
2 85151  98.4776 228.2062 0014992 126.7659 233.4909 14.41865358326787
UNKNOWN                 
1 85159U          23026.96210298  .00011693  00000+0  55085-2 0  9992
2 85159  98.8351 295.4566 0081445   2.0134 358.1354 14.18286096350027
UNKNOWN                 
1 85205U          23024.74037219  .00000294  00000+0  28358-3 0  9997
2 85205  82.9585  16.6238 0037436 355.8181 123.8630 13.76541942461487
UNKNOWN                 
1 85210U 75052    23028.26745743  .00000535  00000+0  56578-3 0  9994
2 85210  99.7841 136.7615 0223672 123.2598 265.7725 13.68779685458446
UNKNOWN                 
1 85217U          23029.39650956  .00001254  00000+0  39400-3 0  9992
2 85217  97.9375 193.6091 0236910  33.1845 328.3945 14.27212065477821
UNKNOWN                 
1 85220U          23029.54120369  .00011214  00000+0  27582-2 0  9997
2 85220  99.4050 247.7424 0155513 145.3230 215.8217 14.45357503480492
UNKNOWN                 
1 85237U          23027.47532542  .00002171  00000+0  55461-3 0  9995
2 85237  65.5494  49.8635 0580594 140.7212 223.7510 13.82878171462225
UNKNOWN                 
1 85238U          23029.11732242  .00000060  00000+0  83794-4 0  9994
2 85238  98.9505 343.2471 0063887 159.3050 211.8485 13.88014265465353
UNKNOWN                 
1 85246U          23029.19708277  .00001819  00000+0  70768-3 0  9991
2 85246  98.0824 118.7937 0237950 140.2654 221.6225 14.16495934474373
UNKNOWN                 
1 85266U          23029.27917850  .00002055  00000+0  23259-2 0  9996
2 85266  62.8025 353.6571 3556186 177.1917 185.6560  7.81158184259021
UNKNOWN                 
1 85283U 78098    23023.24368313  .00050971  00000+0  90447-2 0  9995
2 85283  99.6897 128.3942 0023646  80.0894 280.2972 14.66788722387611
UNKNOWN                 
1 85292U          23025.12712174  .00027804  00000+0  61709-2 0  9998
2 85292  65.8300 175.1852 0041573 153.0314 207.2963 14.56435684 34020
UNKNOWN                 
1 85370U          23027.35401140  .00001776  00000+0  16274-2 0  9997
2 85370  99.9801 166.4822 0010733 244.1576 143.7444 13.84490673463558
UNKNOWN                 
1 85373U          23029.18747142  .00000697  00000+0  58308-3 0  9994
2 85373 100.4052 279.1891 0051371 102.8182  48.2088 13.91884028465847
UNKNOWN                 
1 85383U          23028.25280725  .00009437  00000+0  24108-2 0  9992
2 85383  98.6445 132.3619 0098290 284.9949  74.0380 14.47814380433735
UNKNOWN                 
1 85386U          23028.80713015  .00013763  00000+0  31622-2 0  9995
2 85386  98.6460 147.7831 0104428 212.9305 304.8415 14.52247183484375
UNKNOWN                 
1 85401U          23012.00000000 -.00000081  00000+0  00000+0 0  9994
2 85401   0.4115 127.3069 1471893 197.8787 250.5514  0.97292048   125
UNKNOWN                 
1 87014U          23029.18973997  .00001971  00000+0  34385-2 0  9991
2 87014 100.5331 287.8490 0051449 244.1981 270.8488 13.44408734449647
UNKNOWN                 
1 87029U 99025    23027.11495195  .00001064  00000+0  72115-3 0  9999
2 87029  98.8692  85.6314 0081055 302.4842  56.8507 14.00803847445727
